NORAD_CAT_ID,OBJECT_NAME,OBJECT_TYPE,EPOCH,MEAN_MOTION,ECCENTRICITY,INCLINATION,RA_OF_ASC_NODE,ARG_OF_PERICENTER,MEAN_ANOMALY,BSTAR,MEAN_MOTION_DOT,MEAN_MOTION_DDOT,TLE_LINE0,TLE_LINE1,TLE_LINE2,SEMIMAJOR_AXIS,PERIOD,APOGEE,PERIGEE,DECAYED
52557.0,STARLINK-3943,PAYLOAD,2024-04-20 14:46:26,15.08850963,0.0001639,53.2182,338.0133,85.3131,274.8048,4.3234e-05,4e-06,0.0,0 STARLINK-3943,1 52557U 22051AA  24111.61558104  .00000400  00000-0  43234-4 0  9997,2 52557  53.2182 338.0133 0001639  85.3131 274.8048 15.08850963107576,6917.847,95.437,540.846,538.578,0.0
52557.0,STARLINK-3943,PAYLOAD,2024-04-20 19:32:36,15.08839491,0.000148,53.2186,337.1075,117.3699,242.7444,-0.00015049,-2.682e-05,0.0,0 STARLINK-3943,1 52557U 22051AA  24111.81430585 -.00002682  00000-0 -15049-3 0  9999,2 52557  53.2186 337.1075 0001480 117.3699 242.7444 15.08839491107672,6917.882,95.438,540.771,538.723,0.0
52557.0,STARLINK-3943,PAYLOAD,2024-04-21 00:18:45,15.08828796,0.0001353,53.2181,336.2178,120.0968,240.0159,-0.00029021,-4.902e-05,0.0,0 STARLINK-3943,1 52557U 22051AA  24112.01303053 -.00004902  00000-0 -29021-3 0  9993,2 52557  53.2181 336.2178 0001353 120.0968 240.0159 15.08828796107704,6917.915,95.438,540.716,538.844,0.0
52557.0,STARLINK-3943,PAYLOAD,2024-04-21 20:58:46,15.08842323,0.0001884,53.2176,332.3627,60.1929,299.925,0.00016258,2.3e-05,0.0,0 STARLINK-3943,1 52557U 22051AA  24112.87415287  .00002300  00000-0  16258-3 0  9996,2 52557  53.2176 332.3627 0001884  60.1929 299.9250 15.08842323107835,6917.873,95.437,541.042,538.435,0.0
52557.0,STARLINK-3943,PAYLOAD,2024-04-22 20:49:34,15.08834009,0.0001316,53.2177,327.9006,121.0176,239.0946,0.0003488,5.267e-05,0.0,0 STARLINK-3943,1 52557U 22051AA  24113.86775470  .00005267  00000-0  34880-3 0  9995,2 52557  53.2177 327.9006 0001316 121.0176 239.0946 15.08834009107916,6917.899,95.438,540.674,538.853,0.0
52557.0,STARLINK-3943,PAYLOAD,2024-04-23 00:00:20,15.08839863,9.44e-05,53.2175,327.2997,94.3816,265.7284,0.00027776,4.136e-05,0.0,0 STARLINK-3943,1 52557U 22051AA  24114.00023308  .00004136  00000-0  27776-3 0  9998,2 52557  53.2175 327.2997 0000944  94.3816 265.7284 15.08839863108000,6917.881,95.438,540.399,539.093,0.0
52557.0,STARLINK-3943,PAYLOAD,2024-04-23 20:40:20,15.08841366,0.0001113,53.2181,323.432,100.125,259.9868,-7.0291e-06,-4e-06,0.0,0 STARLINK-3943,1 52557U 22051AA  24114.86135350 -.00000400  00000-0 -70291-5 0  9997,2 52557  53.2181 323.4320 0001113 100.1250 259.9868 15.08841366108062,6917.876,95.437,540.511,538.971,0.0
52557.0,STARLINK-3943,PAYLOAD,2024-04-23 23:51:06,15.08851149,0.0001129,53.2186,322.836,100.598,259.5139,-0.00010816,-2.009e-05,0.0,0 STARLINK-3943,1 52557U 22051AA  24114.99382953 -.00002009  00000-0 -10816-3 0  9996,2 52557  53.2186 322.8360 0001129 100.5980 259.5139 15.08851149108084,6917.846,95.437,540.492,538.93,0.0
52557.0,STARLINK-3943,PAYLOAD,2024-04-24 18:55:45,15.08832351,0.0001153,53.2187,319.2669,102.635,257.4771,5.9865e-05,6.65e-06,0.0,0 STARLINK-3943,1 52557U 22051AA  24115.78871775  .00000665  00000-0  59865-4 0  9991,2 52557  53.2187 319.2669 0001153 102.6350 257.4771 15.08832351108272,6917.904,95.438,540.566,538.971,0.0
52557.0,STARLINK-3943,PAYLOAD,2024-04-25 18:46:32,15.08837042,0.0001101,53.2184,314.8049,107.7382,252.3731,7.4676e-05,9.01e-06,0.0,0 STARLINK-3943,1 52557U 22051AA  24116.78231719  .00000901  00000-0  74676-4 0  9990,2 52557  53.2184 314.8049 0001101 107.7382 252.3731 15.08837042108357,6917.889,95.438,540.516,538.993,0.0
52557.0,STARLINK-3943,PAYLOAD,2024-04-26 05:54:13,15.08853046,6.77e-05,53.2169,312.7332,108.7508,251.3558,0.0001677,2.383e-05,0.0,0 STARLINK-3943,1 52557U 22051AA  24117.24598395  .00002383  00000-0  16770-3 0  9994,2 52557  53.2169 312.7332 0000677 108.7508 251.3558 15.08853046108493,6917.841,95.437,540.174,539.237,0.0
52557.0,STARLINK-3943,PAYLOAD,2024-04-26 17:01:56,15.08831454,0.0001135,53.218,310.6503,111.0006,249.1108,2.5129e-05,1.12e-06,0.0,0 STARLINK-3943,1 52557U 22051AA  24117.70968314  .00000112  00000-0  25129-4 0  9994,2 52557  53.2180 310.6503 0001135 111.0006 249.1108 15.08831454108566,6917.907,95.438,540.557,538.986,0.0
52557.0,STARLINK-3943,PAYLOAD,2024-04-27 05:45:00,15.08859476,9.65e-05,53.2154,308.2717,76.3512,283.7588,0.00032914,4.957e-05,0.0,0 STARLINK-3943,1 52557U 22051AA  24118.23958355  .00004957  00000-0  32914-3 0  9997,2 52557  53.2154 308.2717 0000965  76.3512 283.7588 15.08859476108641,6917.821,95.436,540.353,539.018,0.0
52557.0,STARLINK-3943,PAYLOAD,2024-04-27 20:03:28,15.08855607,9.74e-05,53.2164,305.595,77.5731,282.537,7.1692e-05,8.54e-06,0.0,0 STARLINK-3943,1 52557U 22051AA  24118.83574124  .00000854  00000-0  71692-4 0  9990,2 52557  53.2164 305.5950 0000974  77.5731 282.5370 15.08855607108735,6917.833,95.437,540.371,539.024,0.0
52557.0,STARLINK-3943,PAYLOAD,2024-04-28 11:57:20,15.0882126,0.0001385,53.2166,302.6213,91.0616,269.0535,-0.00022331,-3.838e-05,0.0,0 STARLINK-3943,1 52557U 22051AA  24119.49815550 -.00003838  00000-0 -22331-3 0  9996,2 52557  53.2166 302.6213 0001385  91.0616 269.0535 15.08821260108839,6917.938,95.439,540.761,538.845,0.0
52557.0,STARLINK-3943,PAYLOAD,2024-04-28 19:54:16,15.08826765,9.89e-05,53.2163,301.1335,98.9379,261.1725,-0.00028702,-4.851e-05,0.0,0 STARLINK-3943,1 52557U 22051AA  24119.82935607 -.00004851  00000-0 -28702-3 0  9993,2 52557  53.2163 301.1335 0000989  98.9379 261.1725 15.08826765108813,6917.921,95.438,540.47,539.102,0.0
52557.0,STARLINK-3943,PAYLOAD,2024-04-29 11:48:07,15.08833814,9.55e-05,53.2169,298.1605,89.5657,270.5444,-0.00013729,-2.472e-05,0.0,0 STARLINK-3943,1 52557U 22051AA  24120.49175395 -.00002472  00000-0 -13729-3 0  9998,2 52557  53.2169 298.1605 0000955  89.5657 270.5444 15.08833814108985,6917.899,95.438,540.425,539.104,0.0
52557.0,STARLINK-3943,PAYLOAD,2024-04-29 18:09:40,15.08833974,9.74e-05,53.2167,296.9716,87.6307,272.4797,0.00012658,1.727e-05,0.0,0 STARLINK-3943,1 52557U 22051AA  24120.75671647  .00001727  00000-0  12658-3 0  9998,2 52557  53.2167 296.9716 0000974  87.6307 272.4797 15.08833974108950,6917.899,95.438,540.438,539.09,0.0
52557.0,STARLINK-3943,PAYLOAD,2024-04-30 05:17:22,15.08842112,9.17e-05,53.2167,294.8901,114.718,245.3908,0.00041474,6.319e-05,0.0,0 STARLINK-3943,1 52557U 22051AA  24121.22039672  .00006319  00000-0  41474-3 0  9997,2 52557  53.2167 294.8901 0000917 114.7180 245.3908 15.08842112109094,6917.874,95.437,540.373,539.105,0.0
52557.0,STARLINK-3943,PAYLOAD,2024-04-30 18:00:27,15.08841454,0.0001044,53.2178,292.5118,93.2222,266.8889,0.00040334,6.137e-05,0.0,0 STARLINK-3943,1 52557U 22051AA  24121.75032196  .00006137  00000-0  40334-3 0  9991,2 52557  53.2178 292.5118 0001044  93.2222 266.8889 15.08841454109174,6917.876,95.437,540.463,539.019,0.0
52557.0,STARLINK-3943,PAYLOAD,2024-05-01 11:29:41,15.08851709,0.0001177,53.2183,289.2407,96.6208,263.4919,0.00038092,5.782e-05,0.0,0 STARLINK-3943,1 52557U 22051AA  24122.47895675  .00005782  00000-0  38092-3 0  9993,2 52557  53.2183 289.2407 0001177  96.6208 263.4919 15.08851709109218,6917.845,95.437,540.524,538.895,0.0
52557.0,STARLINK-3943,PAYLOAD,2024-05-01 17:51:14,15.08852441,0.0001115,53.218,288.0523,90.1349,269.977,0.00030886,4.633e-05,0.0,0 STARLINK-3943,1 52557U 22051AA  24122.74391511  .00004633  00000-0  30886-3 0  9990,2 52557  53.2180 288.0523 0001115  90.1349 269.9770 15.08852441109252,6917.842,95.437,540.479,538.936,0.0
52557.0,STARLINK-3943,PAYLOAD,2024-05-02 03:23:32,15.08859658,0.0001117,53.2179,286.2679,90.4643,269.6477,0.00036279,5.494e-05,0.0,0 STARLINK-3943,1 52557U 22051AA  24123.14134932  .00005494  00000-0  36279-3 0  9995,2 52557  53.2179 286.2679 0001117  90.4643 269.6477 15.08859658109386,6917.82,95.436,540.458,538.913,0.0
52557.0,STARLINK-3943,PAYLOAD,2024-05-02 14:31:15,15.08832046,0.0001112,53.2172,284.1853,95.3143,264.7976,-0.00014057,-2.524e-05,0.0,0 STARLINK-3943,1 52557U 22051AA  24123.60503948 -.00002524  00000-0 -14057-3 0  9996,2 52557  53.2172 284.1853 0001112  95.3143 264.7976 15.08832046109386,6917.905,95.438,540.539,539.0,0.0
52557.0,STARLINK-3943,PAYLOAD,2024-05-02 20:52:47,15.08840473,0.0001008,53.2167,282.9935,78.4689,281.6416,3.4186e-05,2.56e-06,0.0,0 STARLINK-3943,1 52557U 22051AA  24123.86999703  .00000256  00000-0  34186-4 0  9996,2 52557  53.2167 282.9935 0001008  78.4689 281.6416 15.08840473109490,6917.879,95.438,540.441,539.047,0.0
52557.0,STARLINK-3943,PAYLOAD,2024-05-03 14:22:02,15.08825125,0.0001091,53.2151,279.7236,97.3861,262.7255,-5.1116e-05,-1.101e-05,0.0,0 STARLINK-3943,1 52557U 22051AA  24124.59864290 -.00001101  00000-0 -51116-4 0  9993,2 52557  53.2151 279.7236 0001091  97.3861 262.7255 15.08825125109538,6917.926,95.438,540.546,539.036,0.0
52557.0,STARLINK-3943,PAYLOAD,2024-05-03 17:32:49,15.08827394,0.0001136,53.2156,279.13,100.2669,259.8451,8.3447e-05,1.04e-05,0.0,0 STARLINK-3943,1 52557U 22051AA  24124.73112400  .00001040  00000-0  83447-4 0  9990,2 52557  53.2156 279.1300 0001136 100.2669 259.8451 15.08827394109624,6917.919,95.438,540.57,538.998,0.0
52557.0,STARLINK-3943,PAYLOAD,2024-05-04 09:26:40,15.08841696,0.0001104,53.2167,276.1566,93.4799,266.632,0.00060137,9.296e-05,0.0,0 STARLINK-3943,1 52557U 22051AA  24125.39352518  .00009296  00000-0  60137-3 0  9990,2 52557  53.2167 276.1566 0001104  93.4799 266.6320 15.08841696109722,6917.875,95.437,540.504,538.976,0.0
52557.0,STARLINK-3943,PAYLOAD,2024-05-05 14:03:36,15.08847233,0.0001301,53.2154,270.8018,84.5318,275.5822,0.00030294,4.538e-05,0.0,0 STARLINK-3943,1 52557U 22051AA  24126.58584358  .00004538  00000-0  30294-3 0  9996,2 52557  53.2154 270.8018 0001301  84.5318 275.5822 15.08847233109839,6917.858,95.437,540.623,538.823,0.0
52557.0,STARLINK-3943,PAYLOAD,2024-05-05 15:39:00,15.08846472,0.0001253,53.2163,270.5055,84.1125,276.001,0.00025729,3.81e-05,0.0,0 STARLINK-3943,1 52557U 22051AA  24126.65208382  .00003810  00000-0  25729-3 0  9993,2 52557  53.2163 270.5055 0001253  84.1125 276.0010 15.08846472109913,6917.861,95.437,540.592,538.859,0.0
